STARLINK-3297           
1 50159U 21125D   26068.76164687 -.00000207  00000+0  50740-5 0  9998
2 50159  53.2175 258.8095 0001456  97.4511 262.6647 15.08837403236468
LEMUR-2-LANGER2SPACE    
1 63358U 25061H   26068.93705617  .00006238  00000+0  35148-3 0  9991
2 63358  97.5541  45.3892 0015335 237.4180 122.5571 15.13463796 52602
